OBJECT_NAME,OBJECT_ID,EPOCH,MEAN_MOTION,ECCENTRICITY,INCLINATION,RA_OF_ASC_NODE,ARG_OF_PERICENTER,MEAN_ANOMALY,EPHEMERIS_TYPE,CLASSIFICATION_TYPE,NORAD_CAT_ID,ELEMENT_SET_NO,REV_AT_EPOCH,BSTAR,MEAN_MOTION_DOT,MEAN_MOTION_DDOT
ONEWEB-0198,2021-031G,2026-07-07T05:53:47.190912,13.14503027,.00024498,87.8962,285.7128,104.8222,255.3179,0,U,48216,999,25112,.31352225E-3,.129E-5,0
ONEWEB-0189,2021-031H,2026-07-06T17:24:35.059392,13.14502321,.00023256,87.8977,285.8049,105.3717,254.7670,0,U,48217,999,25079,.4960588E-3,.197E-5,0
ONEWEB-0196,2021-031J,2026-07-07T05:39:52.757856,13.14502248,.00021576,87.8970,285.7123,100.8481,259.2892,0,U,48218,999,25086,-.16497765E-3,-.48E-6,0
ONEWEB-0183,2021-031K,2026-07-06T16:16:04.084320,13.14501642,.00020218,87.8971,285.8208,93.8397,266.2964,0,U,48219,999,25088,-.51543723E-3,-.178E-5,0
ONEWEB-0185,2021-031L,2026-07-07T05:41:00.447936,13.14503621,.00023017,87.8977,285.7046,92.0439,268.0955,0,U,48220,999,25088,-.10665673E-3,-.27E-6,0
ONEWEB-0187,2021-031M,2026-07-07T05:12:16.246944,13.14502801,.00022116,87.8973,285.7228,98.2523,261.8858,0,U,48221,999,25089,-.36380864E-3,-.122E-5,0
ONEWEB-0192,2021-031N,2026-07-06T17:31:26.427072,13.14502880,.00020778,87.8970,285.8099,102.5037,257.6325,0,U,48222,999,25074,.5144866E-3,.204E-5,0
ONEWEB-0219,2021-031P,2026-07-07T05:49:00.139008,13.14503474,.0002259,87.8977,285.7005,97.2957,262.8430,0,U,48223,999,25101,.19895384E-3,.87E-6,0
ONEWEB-0202,2021-031Q,2026-07-07T05:21:36.981216,13.14502331,.00024997,87.8974,285.7174,112.5259,247.6136,0,U,48224,999,25099,-.56388439E-3,-.196E-5,0
ONEWEB-0204,2021-031R,2026-07-07T06:10:40.735488,13.14499327,.00018857,87.8975,285.7041,86.8119,273.3227,0,U,48225,999,25089,.63484362E-3,.248E-5,0
ONEWEB-0205,2021-031S,2026-07-07T05:35:18.486240,13.14502685,.00023227,87.8978,285.7041,98.7782,261.3610,0,U,48226,999,25090,-.27983342E-3,-.91E-6,0
ONEWEB-0206,2021-031T,2026-07-07T04:56:28.655808,13.14501504,.00018493,87.8977,285.7100,100.5134,259.6204,0,U,48227,999,25085,-.62078449E-4,-.1E-6,0
ONEWEB-0182,2021-031U,2026-07-07T04:49:38.079552,13.14503728,.00019775,87.8974,285.7183,94.6196,265.5160,0,U,48228,999,25106,.23202065E-3,.99E-6,0
ONEWEB-0186,2021-031V,2026-07-06T16:18:21.276288,13.14502545,.00021221,87.8983,285.8142,99.7033,260.4337,0,U,48229,999,25094,-.53282394E-3,-.185E-5,0
ONEWEB-0181,2021-031W,2026-07-06T15:46:22.238112,13.14504023,.00022308,87.8962,285.8443,102.1708,257.9672,0,U,48230,999,25079,.21983863E-3,.94E-6,0
ONEWEB-0188,2021-031X,2026-07-07T05:28:26.970816,13.14502050,.00020758,87.8963,285.7304,98.8655,261.2710,0,U,48231,999,25077,-.48961128E-3,-.169E-5,0
ONEWEB-0220,2021-031Y,2026-07-07T06:25:32.062944,13.14504068,.00023206,87.8980,285.6985,96.0777,264.0618,0,U,48232,999,25104,.64698845E-3,.253E-5,0
ONEWEB-0165,2021-031Z,2026-07-06T20:09:00.099936,13.14503357,.00023805,87.8973,285.7955,105.9066,254.2326,0,U,48233,999,25094,-.70342281E-3,-.248E-5,0
ONEWEB-0199,2021-031AA,2026-07-07T04:54:12.247488,13.14501704,.00018466,87.8981,285.7096,99.3071,260.8268,0,U,48234,999,25089,.72475938E-4,.4E-6,0
ONEWEB-0203,2021-031AB,2026-07-06T15:53:13.486560,13.14500936,.00019623,87.8980,285.8206,105.2709,254.8638,0,U,48235,999,25083,.20746458E-3,.9E-6,0
ONEWEB-0197,2021-031AC,2026-07-07T05:53:22.149600,13.14502090,.00020564,87.8968,285.6888,92.7622,267.3743,0,U,48236,999,25082,.34948661E-3,.142E-5,0
ONEWEB-0194,2021-031AD,2026-07-07T05:23:53.379168,13.14503650,.0001839,87.8974,285.7164,104.6580,255.4753,0,U,48237,999,25099,-.50291336E-3,-.174E-5,0
ONEWEB-0193,2021-031AE,2026-07-07T05:46:43.634784,13.14502229,.000166,87.8971,285.7029,108.1609,251.9702,0,U,48238,999,25094,.2085338E-5,.14E-6,0
ONEWEB-0191,2021-031AF,2026-07-06T17:15:27.870048,13.14506234,.00019806,87.8978,285.8070,94.9121,265.2235,0,U,48239,999,25073,.56972185E-3,.224E-5,0
ONEWEB-0195,2021-031AG,2026-07-07T05:29:36.089952,13.14503300,.00023899,87.8977,285.7061,103.8343,256.3053,0,U,48240,999,25078,-.38248604E-3,-.129E-5,0
ONEWEB-0201,2021-031AH,2026-07-06T20:04:36.755328,13.14502262,.00021299,87.8972,285.7988,91.9069,268.2304,0,U,48241,999,25096,-.47969165E-3,-.165E-5,0
ONEWEB-0207,2021-031AJ,2026-07-07T04:43:54.725952,13.14504437,.00021416,87.8978,285.7130,92.7313,267.4062,0,U,48242,999,25092,.35628506E-3,.145E-5,0
ONEWEB-0208,2021-031AK,2026-07-07T06:07:16.526496,13.14501880,.00023078,87.8971,285.7072,105.8221,254.3163,0,U,48243,999,25094,.53530925E-3,.211E-5,0
ONEWEB-0200,2021-031AL,2026-07-07T05:14:45.460608,13.14501785,.00021176,87.8983,285.7028,99.8412,260.2957,0,U,48244,999,25086,-.55346003E-3,-.192E-5,0
ONEWEB-0217,2021-031AM,2026-07-07T05:37:35.522688,13.14502546,.00023364,87.8981,285.7037,105.7443,254.3944,0,U,48245,999,25081,-.25734261E-3,-.83E-6,0
