ONEWEB-0198             
1 48216U 21031G   26188.24568508  .00000129  00000+0  31352-3 0  9999
2 48216  87.8962 285.7128 0002449 104.8222 255.3179 13.14503027251123
ONEWEB-0189             
1 48217U 21031H   26187.72540578  .00000197  00000+0  49606-3 0  9995
2 48217  87.8977 285.8049 0002325 105.3717 254.7670 13.14502321250798
ONEWEB-0196             
1 48218U 21031J   26188.23602729 -.00000048  00000+0 -16498-3 0  9990
2 48218  87.8970 285.7123 0002157 100.8481 259.2892 13.14502248250867
ONEWEB-0183             
1 48219U 21031K   26187.67782505 -.00000178  00000+0 -51544-3 0  9994
2 48219  87.8971 285.8208 0002021  93.8397 266.2964 13.14501642250888
ONEWEB-0185             
1 48220U 21031L   26188.23681074 -.00000027  00000+0 -10666-3 0  9991
2 48220  87.8977 285.7046 0002301  92.0439 268.0955 13.14503621250883
ONEWEB-0187             
1 48221U 21031M   26188.21685471 -.00000122  00000+0 -36381-3 0  9993
2 48221  87.8973 285.7228 0002211  98.2523 261.8858 13.14502801250897
ONEWEB-0192             
1 48222U 21031N   26187.73016698  .00000204  00000+0  51449-3 0  9990
2 48222  87.8970 285.8099 0002077 102.5037 257.6325 13.14502880250744
ONEWEB-0219             
1 48223U 21031P   26188.24236272  .00000087  00000+0  19895-3 0  9998
2 48223  87.8977 285.7005 0002259  97.2957 262.8430 13.14503474251017
ONEWEB-0202             
1 48224U 21031Q   26188.22334469 -.00000196  00000+0 -56388-3 0  9995
2 48224  87.8974 285.7174 0002499 112.5259 247.6136 13.14502331250995
ONEWEB-0204             
1 48225U 21031R   26188.25741592  .00000248  00000+0  63484-3 0  9999
2 48225  87.8975 285.7041 0001885  86.8119 273.3227 13.14499327250892
ONEWEB-0205             
1 48226U 21031S   26188.23285285 -.00000091  00000+0 -27983-3 0  9992
2 48226  87.8978 285.7041 0002322  98.7782 261.3610 13.14502685250908
ONEWEB-0206             
1 48227U 21031T   26188.20588722 -.00000010  00000+0 -62078-4 0  9998
2 48227  87.8977 285.7100 0001849 100.5134 259.6204 13.14501504250852
ONEWEB-0182             
1 48228U 21031U   26188.20113518  .00000099  00000+0  23202-3 0  9996
2 48228  87.8974 285.7183 0001977  94.6196 265.5160 13.14503728251065
ONEWEB-0186             
1 48229U 21031V   26187.67941292 -.00000185  00000+0 -53282-3 0  9994
2 48229  87.8983 285.8142 0002122  99.7033 260.4337 13.14502545250943
ONEWEB-0181             
1 48230U 21031W   26187.65720183  .00000094  00000+0  21984-3 0  9999
2 48230  87.8962 285.8443 0002230 102.1708 257.9672 13.14504023250793
ONEWEB-0188             
1 48231U 21031X   26188.22808994 -.00000169  00000+0 -48961-3 0  9990
2 48231  87.8963 285.7304 0002075  98.8655 261.2710 13.14502050250776
ONEWEB-0220             
1 48232U 21031Y   26188.26773221  .00000253  00000+0  64699-3 0  9997
2 48232  87.8980 285.6985 0002320  96.0777 264.0618 13.14504068251048
ONEWEB-0165             
1 48233U 21031Z   26187.83958449 -.00000248  00000+0 -70342-3 0  9995
2 48233  87.8973 285.7955 0002380 105.9066 254.2326 13.14503357250941
ONEWEB-0199             
1 48234U 21031AA  26188.20430842  .00000040  00000+0  72476-4 0  9999
2 48234  87.8981 285.7096 0001846  99.3071 260.8268 13.14501704250891
ONEWEB-0203             
1 48235U 21031AB  26187.66196165  .00000090  00000+0  20746-3 0  9993
2 48235  87.8980 285.8206 0001962 105.2709 254.8638 13.14500936250833
ONEWEB-0197             
1 48236U 21031AC  26188.24539525  .00000142  00000+0  34949-3 0  9998
2 48236  87.8968 285.6888 0002056  92.7622 267.3743 13.14502090250821
ONEWEB-0194             
1 48237U 21031AD  26188.22492337 -.00000174  00000+0 -50291-3 0  9991
2 48237  87.8974 285.7164 0001839 104.6580 255.4753 13.14503650250991
ONEWEB-0193             
1 48238U 21031AE  26188.24078281  .00000014  00000+0  20853-5 0  9996
2 48238  87.8971 285.7029 0001660 108.1609 251.9702 13.14502229250943
ONEWEB-0191             
1 48239U 21031AF  26187.71907257  .00000224  00000+0  56972-3 0  9994
2 48239  87.8978 285.8070 0001980  94.9121 265.2235 13.14506234250730
ONEWEB-0195             
1 48240U 21031AG  26188.22888993 -.00000129  00000+0 -38249-3 0  9991
2 48240  87.8977 285.7061 0002389 103.8343 256.3053 13.14503300250785
ONEWEB-0201             
1 48241U 21031AH  26187.83653652 -.00000165  00000+0 -47969-3 0  9999
2 48241  87.8972 285.7988 0002129  91.9069 268.2304 13.14502262250960
ONEWEB-0207             
1 48242U 21031AJ  26188.19716118  .00000145  00000+0  35629-3 0  9993
2 48242  87.8978 285.7130 0002141  92.7313 267.4062 13.14504437250925
ONEWEB-0208             
1 48243U 21031AK  26188.25505239  .00000211  00000+0  53531-3 0  9997
2 48243  87.8971 285.7072 0002307 105.8221 254.3163 13.14501880250940
ONEWEB-0200             
1 48244U 21031AL  26188.21858172 -.00000192  00000+0 -55346-3 0  9997
2 48244  87.8983 285.7028 0002117  99.8412 260.2957 13.14501785250860
ONEWEB-0217             
1 48245U 21031AM  26188.23443892 -.00000083  00000+0 -25734-3 0  9996
2 48245  87.8981 285.7037 0002336 105.7443 254.3944 13.14502546250814
